QZS-1R                  
1 49336U 21096A   23314.28799727 -.00000186  00000+0  00000+0 0  9991
2 49336  35.4936  93.8906 0749364 270.4758 283.6781  1.00270216  7481
